{
    "links": {
        "self": "http://www.neowsapp.com/rest/v1/neo/3710713?api_key=iIulBulltgU6a56xZRHN4H3l9WmuAYTsLGpBGhQ2"
    },
    "id": "3710713",
    "neo_reference_id": "3710713",
    "name": "(2015 DQ)",
    "designation": "2015 DQ",
    "nasa_jpl_url": "http://ssd.jpl.nasa.gov/sbdb.cgi?sstr=3710713",
    "absolute_magnitude_h": 25.1,
    "estimated_diameter": {
        "kilometers": {
            "estimated_diameter_min": 0.0253837029,
            "estimated_diameter_max": 0.0567596853
        },
        "meters": {
            "estimated_diameter_min": 25.3837029364,
            "estimated_diameter_max": 56.7596852866
        },
        "miles": {
            "estimated_diameter_min": 0.0157726969,
            "estimated_diameter_max": 0.0352688224
        },
        "feet": {
            "estimated_diameter_min": 83.279867942,
            "estimated_diameter_max": 186.2194458756
        }
    },
    "is_potentially_hazardous_asteroid": false,
    "close_approach_data": [
        {
            "close_approach_date": "2015-02-20",
            "close_approach_date_full": "2015-Feb-20 18:51",
            "epoch_date_close_approach": 1424458260000,
            "relative_velocity": {
                "kilometers_per_second": "13.2836036501",
                "kilometers_per_hour": "47820.9731402664",
                "miles_per_hour": "29714.0930048505"
            },
            "miss_distance": {
                "astronomical": "0.1029234671",
                "lunar": "40.0372287019",
                "kilometers": "15397131.451175077",
                "miles": "9567333.8405949826"
            },
            "orbiting_body": "Earth"
        }
    ],
    "orbital_data": {
        "orbit_id": "4",
        "orbit_determination_date": "2019-07-18 07:27:16",
        "first_observation_date": "2015-02-16",
        "last_observation_date": "2015-02-18",
        "data_arc_in_days": 2,
        "observations_used": 35,
        "orbit_uncertainty": "9",
        "minimum_orbit_intersection": ".102877",
        "jupiter_tisserand_invariant": "4.019",
        "epoch_osculation": "2457070.5",
        "eccentricity": ".3782535136727565",
        "semi_major_axis": "1.712579929622963",
        "inclination": "22.59042234549618",
        "ascending_node_longitude": "147.2929683278808",
        "orbital_period": "818.6055824031697",
        "perihelion_distance": "1.064790553797635",
        "perihelion_argument": "26.65974427195789",
        "aphelion_distance": "2.36036930544829",
        "perihelion_time": "2457095.681538104297",
        "mean_anomaly": "348.9258589088363",
        "mean_motion": ".439772226990137",
        "equinox": "J2000",
        "orbit_class": {
            "orbit_class_type": "AMO",
            "orbit_class_description": "Near-Earth asteroid orbits similar to that of 1221 Amor",
            "orbit_class_range": "1.017 AU < q (perihelion) < 1.3 AU"
        }
    },
    "is_sentry_object": false
}